{
    "links": {
        "self": "http://www.neowsapp.com/rest/v1/neo/54000001?api_key=iIulBulltgU6a56xZRHN4H3l9WmuAYTsLGpBGhQ2"
    },
    "id": "54000001",
    "neo_reference_id": "54000001",
    "name": "(2020 DY2)",
    "designation": "2020 DY2",
    "nasa_jpl_url": "http://ssd.jpl.nasa.gov/sbdb.cgi?sstr=54000001",
    "absolute_magnitude_h": 25.089,
    "estimated_diameter": {
        "kilometers": {
            "estimated_diameter_min": 0.0255126151,
            "estimated_diameter_max": 0.0570479416
        },
        "meters": {
            "estimated_diameter_min": 25.5126150742,
            "estimated_diameter_max": 57.0479415898
        },
        "miles": {
            "estimated_diameter_min": 0.0158527991,
            "estimated_diameter_max": 0.0354479365
        },
        "feet": {
            "estimated_diameter_min": 83.7028080401,
            "estimated_diameter_max": 187.1651686854
        }
    },
    "is_potentially_hazardous_asteroid": false,
    "close_approach_data": [
        {
            "close_approach_date": "2020-02-10",
            "close_approach_date_full": "2020-Feb-10 13:03",
            "epoch_date_close_approach": 1581339780000,
            "relative_velocity": {
                "kilometers_per_second": "8.4668401504",
                "kilometers_per_hour": "30480.6245413703",
                "miles_per_hour": "18939.4747323865"
            },
            "miss_distance": {
                "astronomical": "0.0216860966",
                "lunar": "8.4358915774",
                "kilometers": "3244193.859974242",
                "miles": "2015848.5884468596"
            },
            "orbiting_body": "Earth"
        }
    ],
    "orbital_data": {
        "orbit_id": "3",
        "orbit_determination_date": "2020-03-21 06:54:06",
        "first_observation_date": "2020-02-20",
        "last_observation_date": "2020-03-16",
        "data_arc_in_days": 25,
        "observations_used": 24,
        "orbit_uncertainty": "8",
        "minimum_orbit_intersection": ".00384731",
        "jupiter_tisserand_invariant": "3.433",
        "epoch_osculation": "2458901.5",
        "eccentricity": ".5682243033013039",
        "semi_major_axis": "2.201700727035486",
        "inclination": "2.776505410485814",
        "ascending_node_longitude": "333.4391987968976",
        "orbital_period": "1193.262123879286",
        "perihelion_distance": ".9506408653377727",
        "perihelion_argument": "148.7350420536623",
        "aphelion_distance": "3.4527605887332",
        "perihelion_time": "2458875.247568478976",
        "mean_anomaly": "7.920200564854866",
        "mean_motion": ".3016939805561269",
        "equinox": "J2000",
        "orbit_class": {
            "orbit_class_type": "APO",
            "orbit_class_description": "Near-Earth asteroid orbits which cross the Earth’s orbit similar to that of 1862 Apollo",
            "orbit_class_range": "a (semi-major axis) > 1.0 AU; q (perihelion) < 1.017 AU"
        }
    },
    "is_sentry_object": false
}